[{"OBJECT_NAME":"ONEWEB-0468","OBJECT_ID":"2022-012AG","EPOCH":"2026-03-09T22:15:37.940544","MEAN_MOTION":13.10375649,"ECCENTRICITY":0.00017373,"INCLINATION":87.8776,"RA_OF_ASC_NODE":56.0394,"ARG_OF_PERICENTER":96.236,"MEAN_ANOMALY":263.8966,"EPHEMERIS_TYPE":0,"CLASSIFICATION_TYPE":"U","NORAD_CAT_ID":51652,"ELEMENT_SET_NO":999,"REV_AT_EPOCH":19630,"BSTAR":-0.0003174139,"MEAN_MOTION_DOT":-9.8e-7,"MEAN_MOTION_DDOT":0},{"OBJECT_NAME":"UNKNOWN","OBJECT_ID":"","EPOCH":"2026-03-06T05:38:45.804768","MEAN_MOTION":13.04765261,"ECCENTRICITY":0.00331924,"INCLINATION":90.1613,"RA_OF_ASC_NODE":356.2188,"ARG_OF_PERICENTER":80.743,"MEAN_ANOMALY":279.7447,"EPHEMERIS_TYPE":0,"CLASSIFICATION_TYPE":"U","NORAD_CAT_ID":270015,"ELEMENT_SET_NO":999,"REV_AT_EPOCH":29864,"BSTAR":0.0020511977,"MEAN_MOTION_DOT":6.7e-6,"MEAN_MOTION_DDOT":0}]
